IRIDIUM 106             
1 41917U 17003A   25270.27747936  .00000462  00000+0  15776-3 0  9994
2 41917  86.4034 198.3561 0002421  72.0554 288.0905 14.34218582455525
IRIDIUM 103             
1 41918U 17003B   25270.33455986  .00000536  00000+0  18442-3 0  9998
2 41918  86.4033 198.2328 0002577  92.8531 267.2960 14.34215794455557
IRIDIUM 109             
1 41919U 17003C   25270.27113742 -.00000088  00000+0 -38371-4 0  9991
2 41919  86.4038 198.3142 0002087  86.0307 274.1127 14.34216703455519
IRIDIUM 102             
1 41920U 17003D   25270.30918263  .00000490  00000+0  16797-3 0  9990
2 41920  86.4033 198.2278 0002100  84.8541 275.2895 14.34223377455606
IRIDIUM 105             
1 41921U 17003E   25270.14050730  .00000577  00000+0  19914-3 0  9999
2 41921  86.4042 166.8136 0002218  86.5042 273.6407 14.34215871457430
IRIDIUM 104             
1 41922U 17003F   25270.25210921  .00000449  00000+0  15314-3 0  9990
2 41922  86.4033 198.2903 0002187  94.1948 265.9498 14.34217659455581
IRIDIUM 114             
1 41923U 17003G   25270.32821974  .00000510  00000+0  17521-3 0  9996
2 41923  86.4032 198.2427 0002273  86.9037 273.2419 14.34218879455575
IRIDIUM 108             
1 41924U 17003H   25270.49604739  .00000214  00000+0  69215-4 0  9992
2 41924  86.4034 166.5603 0002068  79.4382 280.7047 14.34217721457458
